{
  "norad_id": 57710,
  "name": "STARLINK-30335",
  "history": [
    {
      "epoch": "2026-03-28T18:41:20.696064Z",
      "apogee_km": 483.89741652076737,
      "perigee_km": 482.16867611589805,
      "latitude_deg": 3.092864824950368e-05,
      "longitude_deg": -96.5715698332365,
      "height_km": 483.15755935871084,
      "semi_major_axis_km": 6861.170046318332,
      "eccentricity": 0.00012598,
      "inclination_deg": 43.003,
      "raan_deg": 9.9589,
      "arg_perigee_deg": 246.2778,
      "mean_anomaly_deg": 113.7942,
      "mean_motion_rev_day": 15.2758536
    },
    {
      "epoch": "2026-03-30T03:38:36.848832Z",
      "apogee_km": 484.0738443869632,
      "perigee_km": 481.92356445719633,
      "latitude_deg": -4.706375136098508e-05,
      "longitude_deg": 120.00445171659646,
      "height_km": 483.04049077901664,
      "semi_major_axis_km": 6861.1357044220795,
      "eccentricity": 0.0001567,
      "inclination_deg": 43.0051,
      "raan_deg": 2.2057,
      "arg_perigee_deg": 255.7608,
      "mean_anomaly_deg": 104.3069,
      "mean_motion_rev_day": 15.27596829
    },
    {
      "epoch": "2026-03-31T11:01:45.498432Z",
      "apogee_km": 484.2616584839607,
      "perigee_km": 481.8365036517471,
      "latitude_deg": 2.418513479531319e-05,
      "longitude_deg": 0.5434229365204696,
      "height_km": 483.2446271854887,
      "semi_major_axis_km": 6861.186081067854,
      "eccentricity": 0.00017673,
      "inclination_deg": 43.0037,
      "raan_deg": 354.8196,
      "arg_perigee_deg": 249.821,
      "mean_anomaly_deg": 110.2452,
      "mean_motion_rev_day": 15.27580005
    },
    {
      "epoch": "2026-04-01T10:34:07.061664Z",
      "apogee_km": 484.3435245808769,
      "perigee_km": 481.82134031750866,
      "latitude_deg": 2.249739970206049e-05,
      "longitude_deg": 0.9472499852738877,
      "height_km": 483.28801617132956,
      "semi_major_axis_km": 6861.219432449192,
      "eccentricity": 0.0001838,
      "inclination_deg": 43.0083,
      "raan_deg": 349.28,
      "arg_perigee_deg": 250.1723,
      "mean_anomaly_deg": 109.8931,
      "mean_motion_rev_day": 15.27568867
    },
    {
      "epoch": "2026-04-02T17:57:14.312448Z",
      "apogee_km": 483.8928976393954,
      "perigee_km": 482.1673141122674,
      "latitude_deg": 1.585592610480424e-05,
      "longitude_deg": -118.50401789967722,
      "height_km": 482.76208319526137,
      "semi_major_axis_km": 6861.167105875831,
      "eccentricity": 0.00012575,
      "inclination_deg": 43.0051,
      "raan_deg": 341.8979,
      "arg_perigee_deg": 273.0014,
      "mean_anomaly_deg": 87.0694,
      "mean_motion_rev_day": 15.27586342
    },
    {
      "epoch": "2026-04-03T17:29:36.038112Z",
      "apogee_km": 483.9089180248602,
      "perigee_km": 482.27182917352,
      "latitude_deg": -3.9689681355192914e-05,
      "longitude_deg": -118.10022810768082,
      "height_km": 482.655327481679,
      "semi_major_axis_km": 6861.22737359919,
      "eccentricity": 0.0001193,
      "inclination_deg": 43.0044,
      "raan_deg": 336.359,
      "arg_perigee_deg": 285.0152,
      "mean_anomaly_deg": 75.0567,
      "mean_motion_rev_day": 15.27566215
    },
    {
      "epoch": "2026-04-04T01:20:22.567200Z",
      "apogee_km": 483.74582253193694,
      "perigee_km": 482.319796998675,
      "latitude_deg": 2.514996847736312e-05,
      "longitude_deg": 122.03603538705347,
      "height_km": 482.64837371606916,
      "semi_major_axis_km": 6861.169809765306,
      "eccentricity": 0.00010392,
      "inclination_deg": 43.0041,
      "raan_deg": 334.5113,
      "arg_perigee_deg": 283.0734,
      "mean_anomaly_deg": 77.0002,
      "mean_motion_rev_day": 15.27585439
    },
    {
      "epoch": "2026-04-05T15:00:07.583328Z",
      "apogee_km": 483.25148671230454,
      "perigee_km": 482.85490991884217,
      "latitude_deg": -3.4805606224188085e-06,
      "longitude_deg": -93.31090845663451,
      "height_km": 482.6565913618234,
      "semi_major_axis_km": 6861.190198315573,
      "eccentricity": 2.89e-05,
      "inclination_deg": 43.001,
      "raan_deg": 325.6487,
      "arg_perigee_deg": 29.8375,
      "mean_anomaly_deg": 330.2493,
      "mean_motion_rev_day": 15.2757863
    },
    {
      "epoch": "2026-04-06T00:25:04.172160Z",
      "apogee_km": 483.7388856664875,
      "perigee_km": 482.4082224916292,
      "latitude_deg": -7.260010387195353e-06,
      "longitude_deg": 122.85181015482327,
      "height_km": 482.73706130635776,
      "semi_major_axis_km": 6861.210554079058,
      "eccentricity": 9.697e-05,
      "inclination_deg": 43.0024,
      "raan_deg": 323.4339,
      "arg_perigee_deg": 279.7871,
      "mean_anomaly_deg": 80.2871,
      "mean_motion_rev_day": 15.27571832
    },
    {
      "epoch": "2026-04-07T07:48:11.000448Z",
      "apogee_km": 483.59938387747843,
      "perigee_km": 482.3834546990129,
      "latitude_deg": -3.0035445586823674e-05,
      "longitude_deg": 3.39998567794071,
      "height_km": 482.6375039385036,
      "semi_major_axis_km": 6861.128419288246,
      "eccentricity": 8.861e-05,
      "inclination_deg": 43.0023,
      "raan_deg": 316.0495,
      "arg_perigee_deg": 282.3884,
      "mean_anomaly_deg": 77.6868,
      "mean_motion_rev_day": 15.27599262
    },
    {
      "epoch": "2026-04-07T15:38:58.257888Z",
      "apogee_km": 483.96777673799534,
      "perigee_km": 482.3087203828936,
      "latitude_deg": 4.863943037384063e-05,
      "longitude_deg": -116.46638006178237,
      "height_km": 483.0620438212725,
      "semi_major_axis_km": 6861.275248560444,
      "eccentricity": 0.0001209,
      "inclination_deg": 43.0014,
      "raan_deg": 314.2022,
      "arg_perigee_deg": 259.7831,
      "mean_anomaly_deg": 100.2885,
      "mean_motion_rev_day": 15.27550227
    },
    {
      "epoch": "2026-04-08T07:20:33.847584Z",
      "apogee_km": 484.28277572597017,
      "perigee_km": 481.99111022901616,
      "latitude_deg": 3.6171917965426406e-05,
      "longitude_deg": 3.794416658252456,
      "height_km": 483.1784162898791,
      "semi_major_axis_km": 6861.273942977493,
      "eccentricity": 0.000167,
      "inclination_deg": 43.0028,
      "raan_deg": 310.5058,
      "arg_perigee_deg": 256.6632,
      "mean_anomaly_deg": 103.4034,
      "mean_motion_rev_day": 15.27550663
    },
    {
      "epoch": "2026-04-08T23:02:08.326176Z",
      "apogee_km": 484.69696131641285,
      "perigee_km": 481.53529587475714,
      "latitude_deg": 2.625603531933481e-05,
      "longitude_deg": 124.06605832052084,
      "height_km": 483.02737040187526,
      "semi_major_axis_km": 6861.253128595585,
      "eccentricity": 0.0002304,
      "inclination_deg": 43.0053,
      "raan_deg": 306.8156,
      "arg_perigee_deg": 265.1636,
      "mean_anomaly_deg": 94.8953,
      "mean_motion_rev_day": 15.27557614
    },
    {
      "epoch": "2026-04-10T06:25:14.808864Z",
      "apogee_km": 484.1825840807014,
      "perigee_km": 481.75059730194516,
      "latitude_deg": 1.70848763600436e-05,
      "longitude_deg": 4.614492015803738,
      "height_km": 482.7937994086451,
      "semi_major_axis_km": 6861.103590691323,
      "eccentricity": 0.00017723,
      "inclination_deg": 43.0035,
      "raan_deg": 299.43,
      "arg_perigee_deg": 267.6514,
      "mean_anomaly_deg": 92.4135,
      "mean_motion_rev_day": 15.27607554
    },
    {
      "epoch": "2026-04-11T13:48:21.941280Z",
      "apogee_km": 484.85979828246036,
      "perigee_km": 481.18907691334516,
      "latitude_deg": -7.724542829751808e-06,
      "longitude_deg": -114.83420454880925,
      "height_km": 482.31479150850896,
      "semi_major_axis_km": 6861.1614375979025,
      "eccentricity": 0.0002675,
      "inclination_deg": 43.0063,
      "raan_deg": 292.05,
      "arg_perigee_deg": 285.4197,
      "mean_anomaly_deg": 74.6359,
      "mean_motion_rev_day": 15.27588235
    },
    {
      "epoch": "2026-04-13T05:02:16.834848Z",
      "apogee_km": 483.8716662000079,
      "perigee_km": 482.2606556978171,
      "latitude_deg": 2.835400459300571e-05,
      "longitude_deg": 5.840912182484922,
      "height_km": 482.7735944928955,
      "semi_major_axis_km": 6861.203160948912,
      "eccentricity": 0.0001174,
      "inclination_deg": 43.0024,
      "raan_deg": 282.815,
      "arg_perigee_deg": 274.9389,
      "mean_anomaly_deg": 85.1329,
      "mean_motion_rev_day": 15.27574301
    },
    {
      "epoch": "2026-04-14T18:42:03.280032Z",
      "apogee_km": 484.01975234319616,
      "perigee_km": 482.17408041968974,
      "latitude_deg": 3.86563988441268e-06,
      "longitude_deg": 150.48360570957044,
      "height_km": 482.93950640009245,
      "semi_major_axis_km": 6861.233916381443,
      "eccentricity": 0.0001345,
      "inclination_deg": 43.005,
      "raan_deg": 273.948,
      "arg_perigee_deg": 265.9369,
      "mean_anomaly_deg": 94.1329,
      "mean_motion_rev_day": 15.2756403
    },
    {
      "epoch": "2026-04-15T18:14:23.836704Z",
      "apogee_km": 484.0456487155898,
      "perigee_km": 482.0929494028769,
      "latitude_deg": 2.8682607577834016e-05,
      "longitude_deg": 150.8949670608496,
      "height_km": 482.83851536716486,
      "semi_major_axis_km": 6861.206299059233,
      "eccentricity": 0.0001423,
      "inclination_deg": 43.0031,
      "raan_deg": 268.4117,
      "arg_perigee_deg": 270.4606,
      "mean_anomaly_deg": 89.6083,
      "mean_motion_rev_day": 15.27573253
    },
    {
      "epoch": "2026-04-16T17:46:44.160960Z",
      "apogee_km": 483.8741803153407,
      "perigee_km": 482.2316114542664,
      "latitude_deg": 2.116572575095729e-05,
      "longitude_deg": 151.30416501176379,
      "height_km": 482.6814259362174,
      "semi_major_axis_km": 6861.189895884803,
      "eccentricity": 0.0001197,
      "inclination_deg": 43.0024,
      "raan_deg": 262.8723,
      "arg_perigee_deg": 280.4009,
      "mean_anomaly_deg": 79.6708,
      "mean_motion_rev_day": 15.27578731
    }
  ]
}